[{"OBJECT_NAME":"STARK","OBJECT_ID":"2025-185C","EPOCH":"2026-03-09T19:23:11.035968","MEAN_MOTION":14.78690029,"ECCENTRICITY":0.00098781,"INCLINATION":97.9576,"RA_OF_ASC_NODE":153.2747,"ARG_OF_PERICENTER":62.8418,"MEAN_ANOMALY":297.3799,"EPHEMERIS_TYPE":0,"CLASSIFICATION_TYPE":"U","NORAD_CAT_ID":65299,"ELEMENT_SET_NO":999,"REV_AT_EPOCH":2915,"BSTAR":0.0003503119,"MEAN_MOTION_DOT":2.519e-5,"MEAN_MOTION_DDOT":0},{"OBJECT_NAME":"DELTA 1 R\/B(1)","OBJECT_ID":"1978-039B","EPOCH":"2026-03-09T01:41:04.031520","MEAN_MOTION":13.07548501,"ECCENTRICITY":0.08739214,"INCLINATION":28.2291,"RA_OF_ASC_NODE":154.8062,"ARG_OF_PERICENTER":200.7275,"MEAN_ANOMALY":155.5602,"EPHEMERIS_TYPE":0,"CLASSIFICATION_TYPE":"U","NORAD_CAT_ID":10793,"ELEMENT_SET_NO":999,"REV_AT_EPOCH":28068,"BSTAR":0.00037803438,"MEAN_MOTION_DOT":1.016e-5,"MEAN_MOTION_DDOT":0}]
